{
  "links" : {
    "next" : "https://api.nasa.gov/neo/rest/v1/feed?start_date=2006-11-16&end_date=2006-11-16&detailed=true&api_key=t0TVs3DtDT2H8Oy2Zy8m2eVrNsAVKAexjcZXUckd",
    "prev" : "https://api.nasa.gov/neo/rest/v1/feed?start_date=2006-11-14&end_date=2006-11-14&detailed=true&api_key=t0TVs3DtDT2H8Oy2Zy8m2eVrNsAVKAexjcZXUckd",
    "self" : "https://api.nasa.gov/neo/rest/v1/feed?start_date=2006-11-15&end_date=2006-11-15&detailed=true&api_key=t0TVs3DtDT2H8Oy2Zy8m2eVrNsAVKAexjcZXUckd"
  },
  "element_count" : 10,
  "near_earth_objects" : {
    "2006-11-15" : [ {
      "links" : {
        "self" : "https://api.nasa.gov/neo/rest/v1/neo/2451370?api_key=t0TVs3DtDT2H8Oy2Zy8m2eVrNsAVKAexjcZXUckd"
      },
      "neo_reference_id" : "2451370",
      "name" : "451370 (2011 AK5)",
      "nasa_jpl_url" : "http://ssd.jpl.nasa.gov/sbdb.cgi?sstr=2451370",
      "absolute_magnitude_h" : 21.5,
      "estimated_diameter" : {
        "kilometers" : {
          "estimated_diameter_min" : 0.1332155667,
          "estimated_diameter_max" : 0.2978790628
        },
        "meters" : {
          "estimated_diameter_min" : 133.2155666981,
          "estimated_diameter_max" : 297.8790627982
        },
        "miles" : {
          "estimated_diameter_min" : 0.0827762899,
          "estimated_diameter_max" : 0.1850934111
        },
        "feet" : {
          "estimated_diameter_min" : 437.0589598459,
          "estimated_diameter_max" : 977.2935443908
        }
      },
      "is_potentially_hazardous_asteroid" : true,
      "close_approach_data" : [ {
        "close_approach_date" : "2006-11-15",
        "epoch_date_close_approach" : 1163577600000,
        "relative_velocity" : {
          "kilometers_per_second" : "6.834607252",
          "kilometers_per_hour" : "24604.5861070875",
          "miles_per_hour" : "15288.3329619289"
        },
        "miss_distance" : {
          "astronomical" : "0.3935344245",
          "lunar" : "153.0848846436",
          "kilometers" : "58871912",
          "miles" : "36581312"
        },
        "orbiting_body" : "Earth"
      } ],
      "orbital_data" : {
        "orbit_id" : "43",
        "orbit_determination_date" : "2017-04-06 09:20:08",
        "orbit_uncertainty" : "0",
        "minimum_orbit_intersection" : ".0377422",
        "jupiter_tisserand_invariant" : "5.306",
        "epoch_osculation" : "2458000.5",
        "eccentricity" : ".2307270181901738",
        "semi_major_axis" : "1.187732895267396",
        "inclination" : "5.522757022073951",
        "ascending_node_longitude" : "316.8114742797704",
        "orbital_period" : "472.7990595970923",
        "perihelion_distance" : ".9136908259359675",
        "perihelion_argument" : "325.6664650692824",
        "aphelion_distance" : "1.461774964598824",
        "perihelion_time" : "2458160.517145218718",
        "mean_anomaly" : "238.1592917552988",
        "mean_motion" : ".7614228342729428",
        "equinox" : "J2000"
      }
    }, {
      "links" : {
        "self" : "https://api.nasa.gov/neo/rest/v1/neo/3351222?api_key=t0TVs3DtDT2H8Oy2Zy8m2eVrNsAVKAexjcZXUckd"
      },
      "neo_reference_id" : "3351222",
      "name" : "(2006 UO)",
      "nasa_jpl_url" : "http://ssd.jpl.nasa.gov/sbdb.cgi?sstr=3351222",
      "absolute_magnitude_h" : 21.0,
      "estimated_diameter" : {
        "kilometers" : {
          "estimated_diameter_min" : 0.1677084622,
          "estimated_diameter_max" : 0.3750075218
        },
        "meters" : {
          "estimated_diameter_min" : 167.7084621628,
          "estimated_diameter_max" : 375.0075217981
        },
        "miles" : {
          "estimated_diameter_min" : 0.1042091748,
          "estimated_diameter_max" : 0.2330187988
        },
        "feet" : {
          "estimated_diameter_min" : 550.2246310023,
          "estimated_diameter_max" : 1230.3396778159
        }
      },
      "is_potentially_hazardous_asteroid" : true,
      "close_approach_data" : [ {
        "close_approach_date" : "2006-11-15",
        "epoch_date_close_approach" : 1163577600000,
        "relative_velocity" : {
          "kilometers_per_second" : "15.8014535902",
          "kilometers_per_hour" : "56885.2329248503",
          "miles_per_hour" : "35346.2715359994"
        },
        "miss_distance" : {
          "astronomical" : "0.1475907316",
          "lunar" : "57.4127922058",
          "kilometers" : "22079258",
          "miles" : "13719415"
        },
        "orbiting_body" : "Earth"
      } ],
      "orbital_data" : {
        "orbit_id" : "19",
        "orbit_determination_date" : "2017-04-06 09:07:51",
        "orbit_uncertainty" : "5",
        "minimum_orbit_intersection" : ".0310038",
        "jupiter_tisserand_invariant" : "2.940",
        "epoch_osculation" : "2458000.5",
        "eccentricity" : ".665377670784587",
        "semi_major_axis" : "2.82797489566926",
        "inclination" : "2.29173850679814",
        "ascending_node_longitude" : "25.98580083271234",
        "orbital_period" : "1737.047728550775",
        "perihelion_distance" : ".9463035465515625",
        "perihelion_argument" : "77.77071564615412",
        "aphelion_distance" : "4.709646244786958",
        "perihelion_time" : "2457558.807263576458",
        "mean_anomaly" : "91.54002074838615",
        "mean_motion" : ".2072481913322838",
        "equinox" : "J2000"
      }
    }, {
      "links" : {
        "self" : "https://api.nasa.gov/neo/rest/v1/neo/3358690?api_key=t0TVs3DtDT2H8Oy2Zy8m2eVrNsAVKAexjcZXUckd"
      },
      "neo_reference_id" : "3358690",
      "name" : "(2006 VB45)",
      "nasa_jpl_url" : "http://ssd.jpl.nasa.gov/sbdb.cgi?sstr=3358690",
      "absolute_magnitude_h" : 24.7,
      "estimated_diameter" : {
        "kilometers" : {
          "estimated_diameter_min" : 0.0305179233,
          "estimated_diameter_max" : 0.0682401509
        },
        "meters" : {
          "estimated_diameter_min" : 30.5179232594,
          "estimated_diameter_max" : 68.2401509401
        },
        "miles" : {
          "estimated_diameter_min" : 0.0189629525,
          "estimated_diameter_max" : 0.0424024508
        },
        "feet" : {
          "estimated_diameter_min" : 100.1244233463,
          "estimated_diameter_max" : 223.8850168104
        }
      },
      "is_potentially_hazardous_asteroid" : false,
      "close_approach_data" : [ {
        "close_approach_date" : "2006-11-15",
        "epoch_date_close_approach" : 1163577600000,
        "relative_velocity" : {
          "kilometers_per_second" : "6.9725104199",
          "kilometers_per_hour" : "25101.037511722",
          "miles_per_hour" : "15596.8085583253"
        },
        "miss_distance" : {
          "astronomical" : "0.0345448208",
          "lunar" : "13.4379358292",
          "kilometers" : "5167832",
          "miles" : "3211141.75"
        },
        "orbiting_body" : "Earth"
      } ],
      "orbital_data" : {
        "orbit_id" : "9",
        "orbit_determination_date" : "2017-04-06 09:07:38",
        "orbit_uncertainty" : "7",
        "minimum_orbit_intersection" : ".0343587",
        "jupiter_tisserand_invariant" : "5.189",
        "epoch_osculation" : "2458000.5",
        "eccentricity" : ".1649399800501297",
        "semi_major_axis" : "1.222794120589534",
        "inclination" : "12.48262706206284",
        "ascending_node_longitude" : "234.4963107283649",
        "orbital_period" : "493.8879607404812",
        "perihelion_distance" : "1.02110648273408",
        "perihelion_argument" : "171.2115235354259",
        "aphelion_distance" : "1.424481758444987",
        "perihelion_time" : "2457998.055041193335",
        "mean_anomaly" : "1.782155550177452",
        "mean_motion" : ".728910256205184",
        "equinox" : "J2000"
      }
    } ]
  }
}